{
  "norad_id": 49088,
  "name": "ONEWEB-0299",
  "history": [
    {
      "epoch": "2026-03-28T20:28:35.752512",
      "apogee_km": 1194.994579253318,
      "perigee_km": 1192.427419907539,
      "latitude_deg": 84.12519092756358,
      "longitude_deg": -109.29360831994563,
      "semi_major_axis_km": 7571.847999580428,
      "eccentricity": 0.00016952,
      "inclination_deg": 87.9186,
      "raan_deg": 21.793,
      "arg_perigee_deg": 76.0662,
      "mean_anomaly_deg": 284.0658,
      "mean_motion_rev_day": 13.1764959
    }
  ]
}